{"type": "FeatureCollection", "features": [ {"type": "Feature", "properties": {"norad_id": 67000, "name": "2025-292H", "group": "last-30-days", "lat": 9.040547665926242, "lon": 69.47506697000826, "alt_km": 559.9406028752674, "timestamp": "2025-12-24T05:51:18.328183+00:00", "meta": {"OBJECT_NAME": "2025-292H", "OBJECT_ID": "2025-292H", "EPOCH": "2025-12-23T10:40:00.051456", "MEAN_MOTION": 15.05018797, "ECCENTRICITY": 0.00146077, "INCLINATION": 97.656, "RA_OF_ASC_NODE": 69.9088, "ARG_OF_PERICENTER": 240.3187, "MEAN_ANOMALY": 119.6586, "EPHEMERIS_TYPE": 0, "CLASSIFICATION_TYPE": "U", "NORAD_CAT_ID": 67000, "ELEMENT_SET_NO": 999, "REV_AT_EPOCH": 187, "BSTAR": 0.00048749266, "MEAN_MOTION_DOT": 6.877e-05, "MEAN_MOTION_DDOT": 0}, "tle": {"line1": "1 67000U 25292H   25357.44444504  .00006877  00000+0  48749-3 0  9996", "line2": "2 67000  97.6560  69.9088 0014607 240.3187 119.6586 15.05018797  1876"}}, "geometry": {"type": "Point", "coordinates": [69.47506697000826, 9.040547665926242]}}, {"type": "Feature", "properties": {"norad_id": 67001, "name": "2025-292J", "group": "last-30-days", "lat": -20.734482013425904, "lon": 73.60304490007925, "alt_km": 562.5270961874457, "timestamp": "2025-12-24T05:51:18.328193+00:00", "meta": {"OBJECT_NAME": "2025-292J", "OBJECT_ID": "2025-292J", "EPOCH": "2025-12-23T21:57:59.569920", "MEAN_MOTION": 15.04416175, "ECCENTRICITY": 0.00148547, "INCLINATION": 97.6537, "RA_OF_ASC_NODE": 70.3596, "ARG_OF_PERICENTER": 227.8118, "MEAN_ANOMALY": 132.1847, "EPHEMERIS_TYPE": 0, "CLASSIFICATION_TYPE": "U", "NORAD_CAT_ID": 67001, "ELEMENT_SET_NO": 999, "REV_AT_EPOCH": 207, "BSTAR": 0.00039327608, "MEAN_MOTION_DOT": 5.446e-05, "MEAN_MOTION_DDOT": 0}, "tle": {"line1": "1 67001U 25292J   25357.91527280  .00005446  00000+0  39328-3 0  9996", "line2": "2 67001  97.6537  70.3596 0014854 227.8118 132.1847 15.04416175  2073"}}, "geometry": {"type": "Point", "coordinates": [73.60304490007925, -20.734482013425904]}}, {"type": "Feature", "properties": {"norad_id": 67002, "name": "ZK-1A R/B", "group": "last-30-days", "lat": 68.67242377767109, "lon": 51.63863314933146, "alt_km": 423.3658510329233, "timestamp": "2025-12-24T05:51:18.328203+00:00", "meta": {"OBJECT_NAME": "ZK-1A R/B", "OBJECT_ID": "2025-292K", "EPOCH": "2025-12-23T15:41:16.283616", "MEAN_MOTION": 15.5804876, "ECCENTRICITY": 0.02075518, "INCLINATION": 97.7205, "RA_OF_ASC_NODE": 71.3312, "ARG_OF_PERICENTER": 325.717, "MEAN_ANOMALY": 33.0829, "EPHEMERIS_TYPE": 0, "CLASSIFICATION_TYPE": "U", "NORAD_CAT_ID": 67002, "ELEMENT_SET_NO": 999, "REV_AT_EPOCH": 209, "BSTAR": 0.00074034749, "MEAN_MOTION_DOT": 0.00158322, "MEAN_MOTION_DDOT": 8.887399e-06}, "tle": {"line1": "1 67002U 25292K   25357.65366069  .00158322  88874-5  74035-3 0  9991", "line2": "2 67002  97.7205  71.3312 0207551 325.7170  33.0829 15.58048760  2099"}}, "geometry": {"type": "Point", "coordinates": [51.63863314933146, 68.67242377767109]}}, {"type": "Feature", "properties": {"norad_id": 67003, "name": "STARLINK-35660", "group": "last-30-days", "lat": -16.60705386669301, "lon": -75.77430053753586, "alt_km": 330.58375339032045, "timestamp": "2025-12-24T05:51:18.328215+00:00", "meta": {"OBJECT_NAME": "STARLINK-35660", "OBJECT_ID": "2025-293A", "EPOCH": "2025-12-23T22:00:01.999584", "MEAN_MOTION": 15.8249779, "ECCENTRICITY": 0.00037681, "INCLINATION": 69.9933, "RA_OF_ASC_NODE": 291.4008, "ARG_OF_PERICENTER": 266.1275, "MEAN_ANOMALY": 13.0713, "EPHEMERIS_TYPE": 0, "CLASSIFICATION_TYPE": "U", "NORAD_CAT_ID": 67003, "ELEMENT_SET_NO": 999, "REV_AT_EPOCH": 196, "BSTAR": -0.0092163148, "MEAN_MOTION_DOT": -0.01675456, "MEAN_MOTION_DDOT": 0}, "tle": {"line1": "1 67003U 25293A   25357.91668981 -.01675456  00000+0 -92163-2 0  9995", "line2": "2 67003  69.9933 291.4008 0003768 266.1275  13.0713 15.82497790  1967"}}, "geometry": {"type": "Point", "coordinates": [-75.77430053753586, -16.60705386669301]}}, {"type": "Feature", "properties": {"norad_id": 67004, "name": "STARLINK-35913", "group": "last-30-days", "lat": -14.541317782814147, "lon": -74.96135243147147, "alt_km": 330.6362270971049, "timestamp": "2025-12-24T05:51:18.328227+00:00", "meta": {"OBJECT_NAME": "STARLINK-35913", "OBJECT_ID": "2025-293B", "EPOCH": "2025-12-23T22:00:01.999584", "MEAN_MOTION": 15.82484593, "ECCENTRICITY": 0.00036925, "INCLINATION": 69.9934, "RA_OF_ASC_NODE": 291.3982, "ARG_OF_PERICENTER": 263.2011, "MEAN_ANOMALY": 18.2208, "EPHEMERIS_TYPE": 0, "CLASSIFICATION_TYPE": "U", "NORAD_CAT_ID": 67004, "ELEMENT_SET_NO": 999, "REV_AT_EPOCH": 196, "BSTAR": -0.0091755458, "MEAN_MOTION_DOT": -0.01668038, "MEAN_MOTION_DDOT": 0}, "tle": {"line1": "1 67004U 25293B   25357.91668981 -.01668038  00000+0 -91755-2 0  9990", "line2": "2 67004  69.9934 291.3982 0003692 263.2011  18.2208 15.82484593  1964"}}, "geometry": {"type": "Point", "coordinates": [-74.96135243147147, -14.541317782814147]}}, {"type": "Feature", "properties": {"norad_id": 67005, "name": "STARLINK-36148", "group": "last-30-days", "lat": -12.369834491830641, "lon": -74.12370952360966, "alt_km": 330.5049629066443, "timestamp": "2025-12-24T05:51:18.328239+00:00", "meta": {"OBJECT_NAME": "STARLINK-36148", "OBJECT_ID": "2025-293C", "EPOCH": "2025-12-23T22:00:01.999584", "MEAN_MOTION": 15.82476935, "ECCENTRICITY": 0.00038648, "INCLINATION": 69.9937, "RA_OF_ASC_NODE": 291.3959, "ARG_OF_PERICENTER": 264.0494, "MEAN_ANOMALY": 19.7052, "EPHEMERIS_TYPE": 0, "CLASSIFICATION_TYPE": "U", "NORAD_CAT_ID": 67005, "ELEMENT_SET_NO": 999, "REV_AT_EPOCH": 196, "BSTAR": -0.009242899, "MEAN_MOTION_DOT": -0.01678322, "MEAN_MOTION_DDOT": 0}, "tle": {"line1": "1 67005U 25293C   25357.91668981 -.01678322  00000+0 -92429-2 0  9997", "line2": "2 67005  69.9937 291.3959 0003864 264.0494  19.7052 15.82476935  1961"}}, "geometry": {"type": "Point", "coordinates": [-74.12370952360966, -12.369834491830641]}}, {"type": "Feature", "properties": {"norad_id": 67006, "name": "STARLINK-36156", "group": "last-30-days", "lat": -7.419660314427703, "lon": -72.26709417166309, "alt_km": 330.1912010134365, "timestamp": "2025-12-24T05:51:18.328249+00:00", "meta": {"OBJECT_NAME": "STARLINK-36156", "OBJECT_ID": "2025-293D", "EPOCH": "2025-12-23T22:00:01.999584", "MEAN_MOTION": 15.82426679, "ECCENTRICITY": 0.00039122, "INCLINATION": 69.9936, "RA_OF_ASC_NODE": 291.3888, "ARG_OF_PERICENTER": 267.0388, "MEAN_ANOMALY": 22.0545, "EPHEMERIS_TYPE": 0, "CLASSIFICATION_TYPE": "U", "NORAD_CAT_ID": 67006, "ELEMENT_SET_NO": 999, "REV_AT_EPOCH": 196, "BSTAR": -0.009262191, "MEAN_MOTION_DOT": -0.01677956, "MEAN_MOTION_DDOT": 0}, "tle": {"line1": "1 67006U 25293D   25357.91668981 -.01677956  00000+0 -92622-2 0  9995", "line2": "2 67006  69.9936 291.3888 0003912 267.0388  22.0545 15.82426679  1965"}}, "geometry": {"type": "Point", "coordinates": [-72.26709417166309, -7.419660314427703]}}, {"type": "Feature", "properties": {"norad_id": 67007, "name": "STARLINK-36123", "group": "last-30-days", "lat": -9.709306857646606, "lon": -73.11896999586574, "alt_km": 330.47984889887357, "timestamp": "2025-12-24T05:51:18.328259+00:00", "meta": {"OBJECT_NAME": "STARLINK-36123", "OBJECT_ID": "2025-293E", "EPOCH": "2025-12-23T22:00:01.999584", "MEAN_MOTION": 15.82438904, "ECCENTRICITY": 0.0003723, "INCLINATION": 69.9934, "RA_OF_ASC_NODE": 291.3916, "ARG_OF_PERICENTER": 263.0705, "MEAN_ANOMALY": 23.565, "EPHEMERIS_TYPE": 0, "CLASSIFICATION_TYPE": "U", "NORAD_CAT_ID": 67007, "ELEMENT_SET_NO": 999, "REV_AT_EPOCH": 196, "BSTAR": -0.0091977934, "MEAN_MOTION_DOT": -0.01668453, "MEAN_MOTION_DDOT": 0}, "tle": {"line1": "1 67007U 25293E   25357.91668981 -.01668453  00000+0 -91978-2 0  9991", "line2": "2 67007  69.9934 291.3916 0003723 263.0705  23.5650 15.82438904  1962"}}, "geometry": {"type": "Point", "coordinates": [-73.11896999586574, -9.709306857646606]}}, {"type": "Feature", "properties": {"norad_id": 67008, "name": "STARLINK-36163", "group": "last-30-days", "lat": -4.56646520584581, "lon": -71.21858005444969, "alt_km": 330.1040222718266, "timestamp": "2025-12-24T05:51:18.328270+00:00", "meta": {"OBJECT_NAME": "STARLINK-36163", "OBJECT_ID": "2025-293F", "EPOCH": "2025-12-23T22:00:01.999584", "MEAN_MOTION": 15.82383461, "ECCENTRICITY": 0.00038061, "INCLINATION": 69.9935, "RA_OF_ASC_NODE": 291.3852, "ARG_OF_PERICENTER": 267.0034, "MEAN_ANOMALY": 25.1789, "EPHEMERIS_TYPE": 0, "CLASSIFICATION_TYPE": "U", "NORAD_CAT_ID": 67008, "ELEMENT_SET_NO": 999, "REV_AT_EPOCH": 197, "BSTAR": -0.0092546477, "MEAN_MOTION_DOT": -0.01673683, "MEAN_MOTION_DDOT": 0}, "tle": {"line1": "1 67008U 25293F   25357.91668981 -.01673683  00000+0 -92546-2 0  9995", "line2": "2 67008  69.9935 291.3852 0003806 267.0034  25.1789 15.82383461  1973"}}, "geometry": {"type": "Point", "coordinates": [-71.21858005444969, -4.56646520584581]}}, {"type": "Feature", "properties": {"norad_id": 67009, "name": "STARLINK-36118", "group": "last-30-days", "lat": -2.1395786228160163, "lon": -70.33380090148148, "alt_km": 329.8842067808155, "timestamp": "2025-12-24T05:51:18.328280+00:00", "meta": {"OBJECT_NAME": "STARLINK-36118", "OBJECT_ID": "2025-293G", "EPOCH": "2025-12-23T22:00:01.999584", "MEAN_MOTION": 15.82360749, "ECCENTRICITY": 0.0003705, "INCLINATION": 69.9934, "RA_OF_ASC_NODE": 291.3823, "ARG_OF_PERICENTER": 269.0641, "MEAN_ANOMALY": 25.7295, "EPHEMERIS_TYPE": 0, "CLASSIFICATION_TYPE": "U", "NORAD_CAT_ID": 67009, "ELEMENT_SET_NO": 999, "REV_AT_EPOCH": 190, "BSTAR": -0.0092648129, "MEAN_MOTION_DOT": -0.01673603, "MEAN_MOTION_DDOT": 0}, "tle": {"line1": "1 67009U 25293G   25357.91668981 -.01673603  00000+0 -92648-2 0  9991", "line2": "2 67009  69.9934 291.3823 0003705 269.0641  25.7295 15.82360749  1900"}}, "geometry": {"type": "Point", "coordinates": [-70.33380090148148, -2.1395786228160163]}}]}